METEOR-M2 4             
1 59051U 24039A   25006.93800363  .00000156  00000+0  89757-4 0  9994
2 59051  98.6282 330.1200 0005989 252.1236 107.9289 14.22322920 44458
